TIANQI-39               
1 67478U 26010C   26038.92509083  .00000186  00000+0  16983-3 0  9990
2 67478  44.9840 298.2708 0016482  80.4968 279.7732 14.13054909  3270
TIANQI-40               
1 67479U 26010D   26038.92018143  .00000235  00000+0  19331-3 0  9998
2 67479  44.9834 298.2402 0012346  81.5476 278.6761 14.13803752  3274
SZ-20 MODULE            
1 67481U 25082C   26038.34875913  .00030267  00000+0  33307-3 0  9998
2 67481  41.4800  32.2924 0006481 122.9833 237.1630 15.62463218272870
2025-313BE              
1 67482U 25313BE  26036.72310125  .00103503  00000+0  40965-2 0  9996
2 67482  97.4069 113.6274 0008903 100.3384 259.8858 15.24973835  3091
ION SCV-021             
1 67483U 25276DT  26034.18647169 -.00137880  00000+0 -12184-1 0  9992
2 67483  97.5347 109.4970 0011364 207.9438 152.1175 14.97059561  2554
STARLINK-36551          
1 67493U 26012A   26038.91667824 -.01979277  00000+0 -22724-1 0  9993
2 67493  42.9994 124.3318 0001284 282.8927 231.6863 15.64469527  4285
STARLINK-36396          
1 67494U 26012B   26038.91667824  .00061814  00000+0  10544-2 0  9998
2 67494  42.9997 124.9452 0001840 327.3093 300.2619 15.50492407  4281
STARLINK-36550          
1 67495U 26012C   26038.91667824 -.02380648  00000+0 -34126-1 0  9993
2 67495  42.9996 124.4963 0001530 284.7090 163.3595 15.58894527  4280
STARLINK-36534          
1 67496U 26012D   26038.91667824 -.01977214  00000+0 -23511-1 0  9990
2 67496  42.9992 124.3266 0001275 282.9217 233.3213 15.63590319  4226
STARLINK-36555          
1 67497U 26012E   26038.91667824 -.01977536  00000+0 -23597-1 0  9992
2 67497  42.9993 124.3417 0001352 284.6386 225.6356 15.63502457  4282
STARLINK-36081          
1 67498U 26012F   26038.91667824 -.02373454  00000+0 -34705-1 0  9996
2 67498  42.9993 124.4834 0001313 284.7784 167.8888 15.58367205  4222
STARLINK-36558          
1 67499U 26012G   26038.91667824 -.02381030  00000+0 -34855-1 0  9992
2 67499  42.9994 124.4766 0001388 284.0958 171.1880 15.58349468  4283
