CCSDS_OMM_VERS = 2.0
CREATION_DATE  = 
ORIGINATOR     = 

OBJECT_NAME    = TIANQI-39
OBJECT_ID      = 2026-010C
CENTER_NAME    = EARTH
REF_FRAME      = TEME
TIME_SYSTEM    = UTC
MEAN_ELEMENT_THEORY = SGP/SGP4

EPOCH          = 2026-02-07T22:12:07.847712
MEAN_MOTION    = 14.13054909
ECCENTRICITY   = .00164827
INCLINATION    = 44.9840
RA_OF_ASC_NODE = 298.2708
ARG_OF_PERICENTER = 80.4968
MEAN_ANOMALY   = 279.7732

EPHEMERIS_TYPE = 0
CLASSIFICATION_TYPE = U
NORAD_CAT_ID   = 67478
ELEMENT_SET_NO = 999
REV_AT_EPOCH   = 327
BSTAR          = .16982819E-3
MEAN_MOTION_DOT = .186E-5
MEAN_MOTION_DDOT = 0

CCSDS_OMM_VERS = 2.0
CREATION_DATE  = 
ORIGINATOR     = 

OBJECT_NAME    = TIANQI-40
OBJECT_ID      = 2026-010D
CENTER_NAME    = EARTH
REF_FRAME      = TEME
TIME_SYSTEM    = UTC
MEAN_ELEMENT_THEORY = SGP/SGP4

EPOCH          = 2026-02-07T22:05:03.675552
MEAN_MOTION    = 14.13803752
ECCENTRICITY   = .00123468
INCLINATION    = 44.9834
RA_OF_ASC_NODE = 298.2402
ARG_OF_PERICENTER = 81.5476
MEAN_ANOMALY   = 278.6761

EPHEMERIS_TYPE = 0
CLASSIFICATION_TYPE = U
NORAD_CAT_ID   = 67479
ELEMENT_SET_NO = 999
REV_AT_EPOCH   = 327
BSTAR          = .19330842E-3
MEAN_MOTION_DOT = .235E-5
MEAN_MOTION_DDOT = 0

CCSDS_OMM_VERS = 2.0
CREATION_DATE  = 
ORIGINATOR     = 

OBJECT_NAME    = SZ-20 MODULE
OBJECT_ID      = 2025-082C
CENTER_NAME    = EARTH
REF_FRAME      = TEME
TIME_SYSTEM    = UTC
MEAN_ELEMENT_THEORY = SGP/SGP4

EPOCH          = 2026-02-07T08:22:12.788832
MEAN_MOTION    = 15.62463218
ECCENTRICITY   = .00064817
INCLINATION    = 41.4800
RA_OF_ASC_NODE = 32.2924
ARG_OF_PERICENTER = 122.9833
MEAN_ANOMALY   = 237.1630

EPHEMERIS_TYPE = 0
CLASSIFICATION_TYPE = U
NORAD_CAT_ID   = 67481
ELEMENT_SET_NO = 999
REV_AT_EPOCH   = 27287
BSTAR          = .33306895E-3
MEAN_MOTION_DOT = .30267E-3
MEAN_MOTION_DDOT = 0

CCSDS_OMM_VERS = 2.0
CREATION_DATE  = 
ORIGINATOR     = 

OBJECT_NAME    = 2025-313BE
OBJECT_ID      = 2025-313BE
CENTER_NAME    = EARTH
REF_FRAME      = TEME
TIME_SYSTEM    = UTC
MEAN_ELEMENT_THEORY = SGP/SGP4

EPOCH          = 2026-02-05T17:21:15.948000
MEAN_MOTION    = 15.24973835
ECCENTRICITY   = .00089038
INCLINATION    = 97.4069
RA_OF_ASC_NODE = 113.6274
ARG_OF_PERICENTER = 100.3384
MEAN_ANOMALY   = 259.8858

EPHEMERIS_TYPE = 0
CLASSIFICATION_TYPE = U
NORAD_CAT_ID   = 67482
ELEMENT_SET_NO = 999
REV_AT_EPOCH   = 309
BSTAR          = .40964846E-2
MEAN_MOTION_DOT = .103503E-2
MEAN_MOTION_DDOT = 0

CCSDS_OMM_VERS = 2.0
CREATION_DATE  = 
ORIGINATOR     = 

OBJECT_NAME    = ION SCV-021
OBJECT_ID      = 2025-276DT
CENTER_NAME    = EARTH
REF_FRAME      = TEME
TIME_SYSTEM    = UTC
MEAN_ELEMENT_THEORY = SGP/SGP4

EPOCH          = 2026-02-03T04:28:31.154016
MEAN_MOTION    = 14.97059561
ECCENTRICITY   = .00113647
INCLINATION    = 97.5347
RA_OF_ASC_NODE = 109.4970
ARG_OF_PERICENTER = 207.9438
MEAN_ANOMALY   = 152.1175

EPHEMERIS_TYPE = 0
CLASSIFICATION_TYPE = U
NORAD_CAT_ID   = 67483
ELEMENT_SET_NO = 999
REV_AT_EPOCH   = 255
BSTAR          = -.1218394E-1
MEAN_MOTION_DOT = -.13788E-2
MEAN_MOTION_DDOT = 0

CCSDS_OMM_VERS = 2.0
CREATION_DATE  = 
ORIGINATOR     = 

OBJECT_NAME    = STARLINK-36551
OBJECT_ID      = 2026-012A
CENTER_NAME    = EARTH
REF_FRAME      = TEME
TIME_SYSTEM    = UTC
MEAN_ELEMENT_THEORY = SGP/SGP4

EPOCH          = 2026-02-07T22:00:00.999936
MEAN_MOTION    = 15.64469527
ECCENTRICITY   = .0001284
INCLINATION    = 42.9994
RA_OF_ASC_NODE = 124.3318
ARG_OF_PERICENTER = 282.8927
MEAN_ANOMALY   = 231.6863

EPHEMERIS_TYPE = 0
CLASSIFICATION_TYPE = U
NORAD_CAT_ID   = 67493
ELEMENT_SET_NO = 999
REV_AT_EPOCH   = 428
BSTAR          = -.2272432E-1
MEAN_MOTION_DOT = -.1979277E-1
MEAN_MOTION_DDOT = 0

CCSDS_OMM_VERS = 2.0
CREATION_DATE  = 
ORIGINATOR     = 

OBJECT_NAME    = STARLINK-36396
OBJECT_ID      = 2026-012B
CENTER_NAME    = EARTH
REF_FRAME      = TEME
TIME_SYSTEM    = UTC
MEAN_ELEMENT_THEORY = SGP/SGP4

EPOCH          = 2026-02-07T22:00:00.999936
MEAN_MOTION    = 15.50492407
ECCENTRICITY   = .00018408
INCLINATION    = 42.9997
RA_OF_ASC_NODE = 124.9452
ARG_OF_PERICENTER = 327.3093
MEAN_ANOMALY   = 300.2619

EPHEMERIS_TYPE = 0
CLASSIFICATION_TYPE = U
NORAD_CAT_ID   = 67494
ELEMENT_SET_NO = 999
REV_AT_EPOCH   = 428
BSTAR          = .10543902E-2
MEAN_MOTION_DOT = .61814E-3
MEAN_MOTION_DDOT = 0

CCSDS_OMM_VERS = 2.0
CREATION_DATE  = 
ORIGINATOR     = 

OBJECT_NAME    = STARLINK-36550
OBJECT_ID      = 2026-012C
CENTER_NAME    = EARTH
REF_FRAME      = TEME
TIME_SYSTEM    = UTC
MEAN_ELEMENT_THEORY = SGP/SGP4

EPOCH          = 2026-02-07T22:00:00.999936
MEAN_MOTION    = 15.58894527
ECCENTRICITY   = .00015307
INCLINATION    = 42.9996
RA_OF_ASC_NODE = 124.4963
ARG_OF_PERICENTER = 284.7090
MEAN_ANOMALY   = 163.3595

EPHEMERIS_TYPE = 0
CLASSIFICATION_TYPE = U
NORAD_CAT_ID   = 67495
ELEMENT_SET_NO = 999
REV_AT_EPOCH   = 428
BSTAR          = -.34126086E-1
MEAN_MOTION_DOT = -.2380648E-1
MEAN_MOTION_DDOT = 0

CCSDS_OMM_VERS = 2.0
CREATION_DATE  = 
ORIGINATOR     = 

OBJECT_NAME    = STARLINK-36534
OBJECT_ID      = 2026-012D
CENTER_NAME    = EARTH
REF_FRAME      = TEME
TIME_SYSTEM    = UTC
MEAN_ELEMENT_THEORY = SGP/SGP4

EPOCH          = 2026-02-07T22:00:00.999936
MEAN_MOTION    = 15.63590319
ECCENTRICITY   = .00012757
INCLINATION    = 42.9992
RA_OF_ASC_NODE = 124.3266
ARG_OF_PERICENTER = 282.9217
MEAN_ANOMALY   = 233.3213

EPHEMERIS_TYPE = 0
CLASSIFICATION_TYPE = U
NORAD_CAT_ID   = 67496
ELEMENT_SET_NO = 999
REV_AT_EPOCH   = 422
BSTAR          = -.23510627E-1
MEAN_MOTION_DOT = -.1977214E-1
MEAN_MOTION_DDOT = 0

CCSDS_OMM_VERS = 2.0
CREATION_DATE  = 
ORIGINATOR     = 

OBJECT_NAME    = STARLINK-36555
OBJECT_ID      = 2026-012E
CENTER_NAME    = EARTH
REF_FRAME      = TEME
TIME_SYSTEM    = UTC
MEAN_ELEMENT_THEORY = SGP/SGP4

EPOCH          = 2026-02-07T22:00:00.999936
MEAN_MOTION    = 15.63502457
ECCENTRICITY   = .00013526
INCLINATION    = 42.9993
RA_OF_ASC_NODE = 124.3417
ARG_OF_PERICENTER = 284.6386
MEAN_ANOMALY   = 225.6356

EPHEMERIS_TYPE = 0
CLASSIFICATION_TYPE = U
NORAD_CAT_ID   = 67497
ELEMENT_SET_NO = 999
REV_AT_EPOCH   = 428
BSTAR          = -.23596747E-1
MEAN_MOTION_DOT = -.1977536E-1
MEAN_MOTION_DDOT = 0

CCSDS_OMM_VERS = 2.0
CREATION_DATE  = 
ORIGINATOR     = 

OBJECT_NAME    = STARLINK-36081
OBJECT_ID      = 2026-012F
CENTER_NAME    = EARTH
REF_FRAME      = TEME
TIME_SYSTEM    = UTC
MEAN_ELEMENT_THEORY = SGP/SGP4

EPOCH          = 2026-02-07T22:00:00.999936
MEAN_MOTION    = 15.58367205
ECCENTRICITY   = .00013135
INCLINATION    = 42.9993
RA_OF_ASC_NODE = 124.4834
ARG_OF_PERICENTER = 284.7784
MEAN_ANOMALY   = 167.8888

EPHEMERIS_TYPE = 0
CLASSIFICATION_TYPE = U
NORAD_CAT_ID   = 67498
ELEMENT_SET_NO = 999
REV_AT_EPOCH   = 422
BSTAR          = -.34705348E-1
MEAN_MOTION_DOT = -.2373454E-1
MEAN_MOTION_DDOT = 0

CCSDS_OMM_VERS = 2.0
CREATION_DATE  = 
ORIGINATOR     = 

OBJECT_NAME    = STARLINK-36558
OBJECT_ID      = 2026-012G
CENTER_NAME    = EARTH
REF_FRAME      = TEME
TIME_SYSTEM    = UTC
MEAN_ELEMENT_THEORY = SGP/SGP4

EPOCH          = 2026-02-07T22:00:00.999936
MEAN_MOTION    = 15.58349468
ECCENTRICITY   = .00013881
INCLINATION    = 42.9994
RA_OF_ASC_NODE = 124.4766
ARG_OF_PERICENTER = 284.0958
MEAN_ANOMALY   = 171.1880

EPHEMERIS_TYPE = 0
CLASSIFICATION_TYPE = U
NORAD_CAT_ID   = 67499
ELEMENT_SET_NO = 999
REV_AT_EPOCH   = 428
BSTAR          = -.34854789E-1
MEAN_MOTION_DOT = -.238103E-1
MEAN_MOTION_DDOT = 0

